{
"type": "FeatureCollection",
"name": "gm_boundary",
"crs": { "type": "name", "properties": { "name": "urn:ogc:def:crs:OGC:1.3:CRS84" } },
"bbox": [ -2.73052453815457, 53.3273035250441, -1.90962240948292, 53.6857187087088 ],                                              
"features": [
{ "type": "Feature", "properties": { "fid": 1, "LSOA21CD": "E01004766", "LSOA21NM": "Bolton 005A", "MSOA21CD": "E02000988", "MSOA21NM": "Bolton 005", "LADCD": "E08000001", "LADNM": "Bolton", "BNG_E": 371186, "BNG_N": 411551, "LAT": 53.599739074707031, "LONG": -2.4368700981140137 }, "bbox": [ -2.730525, 53.327304, -1.909622, 53.685719 ], "geometry": { "type": "MultiPolygon", "coordinates": [ [ [ [ -2.258076, 53.35706 ], [ -2.264616, 53.353956 ], [ -2.26707, 53.350565 ], [ -2.272904, 53.350503 ], [ -2.278371, 53.348596 ], [ -2.280429, 53.345979 ], [ -2.286238, 53.345729 ], [ -2.28986, 53.342305 ], [ -2.295818, 53.343028 ], [ -2.301344, 53.340105 ], [ -2.302836, 53.340977 ], [ -2.296455, 53.344932 ], [ -2.298318, 53.346716 ], [ -2.297052, 53.348679 ], [ -2.299171, 53.350016 ], [ -2.301402, 53.349017 ], [ -2.305623, 53.35313 ], [ -2.312163, 53.354722 ], [ -2.314663, 53.358898 ], [ -2.322117, 53.359531 ], [ -2.323256, 53.358213 ], [ -2.324552, 53.361432 ], [ -2.329558, 53.360983 ], [ -2.330922, 53.361889 ], [ -2.329613, 53.363649 ], [ -2.333154, 53.365573 ], [ -2.347764, 53.367826 ], [ -2.349176, 53.365901 ], [ -2.352262, 53.368158 ], [ -2.35673, 53.368527 ], [ -2.357084, 53.366877 ], [ -2.360618, 53.36654 ], [ -2.35951, 53.364229 ], [ -2.369455, 53.363662 ], [ -2.377988, 53.366003 ], [ -2.381051, 53.369945 ], [ -2.39028, 53.370685 ], [ -2.396166, 53.374471 ], [ -2.400699, 53.375204 ], [ -2.400097, 53.37729 ], [ -2.407122, 53.379808 ], [ -2.407896, 53.38264 ], [ -2.410597, 53.383849 ], [ -2.424657, 53.386643 ], [ -2.427711, 53.3889 ], [ -2.432045, 53.38771 ], [ -2.433872, 53.389437 ], [ -2.438587, 53.389919 ], [ -2.43862, 53.391569 ], [ -2.445482, 53.392169 ], [ -2.448516, 53.394794 ], [ -2.452607, 53.395138 ], [ -2.458503, 53.392995 ], [ -2.465906, 53.394803 ], [ -2.470775, 53.392317 ], [ -2.475714, 53.394189 ], [ -2.478334, 53.39623 ], [ -2.465977, 53.400731 ], [ -2.449379, 53.415875 ], [ -2.451276, 53.418658 ], [ -2.448995, 53.422859 ], [ -2.461725, 53.436353 ], [ -2.473912, 53.439264 ], [ -2.478211, 53.44347 ], [ -2.475988, 53.448222 ], [ -2.486178, 53.455239 ], [ -2.492229, 53.464879 ], [ -2.491401, 53.472118 ], [ -2.489175, 53.475899 ], [ -2.496336, 53.480914 ], [ -2.552639, 53.467798 ], [ -2.549076, 53.46147 ], [ -2.57039, 53.45846 ], [ -2.576743, 53.446041 ], [ -2.583319, 53.448856 ], [ -2.584736, 53.45216 ], [ -2.58315, 53.453312 ], [ -2.588661, 53.456105 ], [ -2.596265, 53.456513 ], [ -2.599233, 53.458843 ], [ -2.599298, 53.461086 ], [ -2.609102, 53.460994 ], [ -2.61536, 53.463585 ], [ -2.61681, 53.466416 ], [ -2.614549, 53.470345 ], [ -2.607865, 53.470812 ], [ -2.611873, 53.474985 ], [ -2.612051, 53.476727 ], [ -2.609348, 53.476694 ], [ -2.613188, 53.478157 ], [ -2.612139, 53.481122 ], [ -2.645541, 53.480237 ], [ -2.654062, 53.486445 ], [ -2.656731, 53.492507 ], [ -2.663114, 53.492852 ], [ -2.661374, 53.493664 ], [ -2.663872, 53.494664 ], [ -2.666309, 53.499747 ], [ -2.677761, 53.498826 ], [ -2.683273, 53.500896 ], [ -2.698892, 53.502016 ], [ -2.700718, 53.5046 ], [ -2.703148, 53.503962 ], [ -2.706425, 53.505772 ], [ -2.710006, 53.514626 ], [ -2.71558, 53.510664 ], [ -2.719161, 53.51183 ], [ -2.723027, 53.509987 ], [ -2.730525, 53.520581 ], [ -2.717926, 53.527294 ], [ -2.716381, 53.537872 ], [ -2.714559, 53.538264 ], [ -2.718608, 53.543544 ], [ -2.710873, 53.549674 ], [ -2.710264, 53.55305 ], [ -2.70482, 53.559176 ], [ -2.704207, 53.562543 ], [ -2.71127, 53.564752 ], [ -2.712392, 53.568309 ], [ -2.717661, 53.572542 ], [ -2.715607, 53.575061 ], [ -2.719223, 53.576097 ], [ -2.714803, 53.578336 ], [ -2.714376, 53.581662 ], [ -2.709703, 53.585543 ], [ -2.702762, 53.58723 ], [ -2.701736, 53.589377 ], [ -2.702813, 53.589813 ], [ -2.7014, 53.590606 ], [ -2.698184, 53.591317 ], [ -2.69336, 53.589407 ], [ -2.692126, 53.59804 ], [ -2.688997, 53.604365 ], [ -2.685784, 53.603254 ], [ -2.670547, 53.605081 ], [ -2.66113, 53.603247 ], [ -2.646949, 53.607234 ], [ -2.634594, 53.608267 ], [ -2.63201, 53.607183 ], [ -2.631536, 53.600327 ], [ -2.628048, 53.597082 ], [ -2.628233, 53.595302 ], [ -2.622893, 53.593557 ], [ -2.617397, 53.595821 ], [ -2.615234, 53.602762 ], [ -2.595648, 53.610786 ], [ -2.582837, 53.604599 ], [ -2.580045, 53.601159 ], [ -2.580892, 53.600002 ], [ -2.574005, 53.594275 ], [ -2.559591, 53.598898 ], [ -2.555909, 53.604304 ], [ -2.552573, 53.605052 ], [ -2.551701, 53.607889 ], [ -2.53902, 53.610813 ], [ -2.511292, 53.627008 ], [ -2.479197, 53.61702 ], [ -2.473027, 53.616567 ], [ -2.470444, 53.619875 ], [ -2.466021, 53.621683 ], [ -2.463468, 53.622304 ], [ -2.459702, 53.620027 ], [ -2.453783, 53.621958 ], [ -2.453558, 53.623449 ], [ -2.458291, 53.624615 ], [ -2.453463, 53.627924 ], [ -2.450663, 53.627742 ], [ -2.4485, 53.631869 ], [ -2.449739, 53.633353 ], [ -2.448009, 53.636712 ], [ -2.450272, 53.641416 ], [ -2.44308, 53.642394 ], [ -2.438726, 53.646029 ], [ -2.426145, 53.634994 ], [ -2.426357, 53.6265 ], [ -2.421261, 53.623773 ], [ -2.4091, 53.625423 ], [ -2.401211, 53.624583 ], [ -2.400795, 53.629047 ], [ -2.397847, 53.632192 ], [ -2.385951, 53.632998 ], [ -2.383419, 53.631174 ], [ -2.370434, 53.631487 ], [ -2.368499, 53.638002 ], [ -2.370107, 53.638069 ], [ -2.372496, 53.642277 ], [ -2.370477, 53.644696 ], [ -2.367057, 53.645046 ], [ -2.366142, 53.650634 ], [ -2.362643, 53.655973 ], [ -2.371238, 53.667065 ], [ -2.355572, 53.664491 ], [ -2.355402, 53.659438 ], [ -2.35334, 53.658467 ], [ -2.333404, 53.65517 ], [ -2.316759, 53.654971 ], [ -2.311776, 53.659797 ], [ -2.299026, 53.66671 ], [ -2.295693, 53.664281 ], [ -2.293827, 53.657956 ], [ -2.293866, 53.656131 ], [ -2.29642, 53.654966 ], [ -2.2956, 53.653073 ], [ -2.29762, 53.651883 ], [ -2.295739, 53.641479 ], [ -2.283514, 53.626978 ], [ -2.284498, 53.625359 ], [ -2.28246, 53.62309 ], [ -2.282846, 53.620231 ], [ -2.280729, 53.620909 ], [ -2.277747, 53.618693 ], [ -2.272553, 53.618496 ], [ -2.27179, 53.614498 ], [ -2.268891, 53.616167 ], [ -2.266479, 53.614523 ], [ -2.257919, 53.61645 ], [ -2.259238, 53.61924 ], [ -2.256772, 53.620382 ], [ -2.259957, 53.620611 ], [ -2.260465, 53.624328 ], [ -2.263, 53.624996 ], [ -2.26545, 53.639429 ], [ -2.269867, 53.64612 ], [ -2.261443, 53.654107 ], [ -2.253516, 53.656522 ], [ -2.24588, 53.663504 ], [ -2.233081, 53.668831 ], [ -2.225825, 53.670752 ], [ -2.217729, 53.668966 ], [ -2.214843, 53.665191 ], [ -2.207163, 53.660718 ], [ -2.206879, 53.657032 ], [ -2.203605, 53.655902 ], [ -2.20523, 53.654333 ], [ -2.189585, 53.648009 ], [ -2.182409, 53.648242 ], [ -2.181075, 53.645685 ], [ -2.183528, 53.645232 ], [ -2.180469, 53.640533 ], [ -2.185397, 53.638208 ], [ -2.161354, 53.641358 ], [ -2.1606, 53.64828 ], [ -2.163911, 53.652387 ], [ -2.163939, 53.65475 ], [ -2.155029, 53.664233 ], [ -2.153453, 53.668868 ], [ -2.148602, 53.674484 ], [ -2.148138, 53.681995 ], [ -2.146328, 53.682216 ], [ -2.142258, 53.67799 ], [ -2.139715, 53.682794 ], [ -2.134127, 53.685719 ], [ -2.127678, 53.681542 ], [ -2.125387, 53.674823 ], [ -2.118085, 53.67123 ], [ -2.09704, 53.672611 ], [ -2.092907, 53.670146 ], [ -2.086264, 53.671115 ], [ -2.083165, 53.67806 ], [ -2.073399, 53.677495 ], [ -2.061806, 53.682831 ], [ -2.051242, 53.683676 ], [ -2.048902, 53.680211 ], [ -2.054458, 53.676752 ], [ -2.053702, 53.671369 ], [ -2.037096, 53.662328 ], [ -2.035642, 53.659092 ], [ -2.036587, 53.655298 ], [ -2.040527, 53.650902 ], [ -2.041144, 53.64083 ], [ -2.029998, 53.636154 ], [ -2.02903, 53.634209 ], [ -2.030986, 53.629048 ], [ -2.026795, 53.624121 ], [ -2.026441, 53.62079 ], [ -2.023037, 53.615824 ], [ -2.014774, 53.615334 ], [ -2.009472, 53.616765 ], [ -2.007541, 53.612546 ], [ -1.995875, 53.6051 ], [ -1.978246, 53.586773 ], [ -1.971164, 53.584141 ], [ -1.966865, 53.580001 ], [ -1.956582, 53.577556 ], [ -1.947153, 53.572153 ], [ -1.944391, 53.568208 ], [ -1.942728, 53.561625 ], [ -1.924828, 53.552569 ], [ -1.92158, 53.552984 ], [ -1.919372, 53.550863 ], [ -1.912886, 53.551628 ], [ -1.909622, 53.538375 ], [ -1.914256, 53.536692 ], [ -1.915778, 53.532931 ], [ -1.922447, 53.530799 ], [ -1.923479, 53.522942 ], [ -1.926782, 53.520932 ], [ -1.916769, 53.514479 ], [ -1.917501, 53.513061 ], [ -1.921975, 53.509938 ], [ -1.935504, 53.50577 ], [ -1.942331, 53.506603 ], [ -1.947081, 53.504484 ], [ -1.955579, 53.504422 ], [ -1.959476, 53.50589 ], [ -1.963389, 53.50981 ], [ -1.971322, 53.504542 ], [ -1.972722, 53.502469 ], [ -1.970779, 53.495207 ], [ -1.972151, 53.49159 ], [ -1.975405, 53.487044 ], [ -1.987143, 53.481525 ], [ -1.988751, 53.47786 ], [ -1.989307, 53.475232 ], [ -1.987376, 53.472757 ], [ -1.988463, 53.470005 ], [ -1.980587, 53.463128 ], [ -1.988048, 53.460606 ], [ -1.987581, 53.456832 ], [ -1.985656, 53.455296 ], [ -1.99485, 53.450702 ], [ -1.99579, 53.446005 ], [ -1.999335, 53.44585 ], [ -2.008097, 53.4416 ], [ -2.004161, 53.435906 ], [ -2.008207, 53.436081 ], [ -2.013114, 53.439928 ], [ -2.017847, 53.438321 ], [ -2.022848, 53.433149 ], [ -2.027257, 53.432343 ], [ -2.024436, 53.42726 ], [ -2.021655, 53.427362 ], [ -2.019726, 53.425102 ], [ -2.020997, 53.421243 ], [ -2.023441, 53.421736 ], [ -2.023711, 53.420536 ], [ -2.016678, 53.419287 ], [ -2.01702, 53.418126 ], [ -2.014771, 53.417835 ], [ -2.013699, 53.415874 ], [ -1.992332, 53.415177 ], [ -1.996257, 53.404525 ], [ -2.005021, 53.392832 ], [ -2.004644, 53.386311 ], [ -2.013063, 53.384089 ], [ -2.015114, 53.380552 ], [ -2.019716, 53.380579 ], [ -2.017085, 53.377817 ], [ -2.020945, 53.377583 ], [ -2.021473, 53.375043 ], [ -2.02621, 53.373602 ], [ -2.033776, 53.375526 ], [ -2.028865, 53.370574 ], [ -2.038422, 53.371876 ], [ -2.040565, 53.374072 ], [ -2.043939, 53.370624 ], [ -2.055321, 53.366875 ], [ -2.056337, 53.362396 ], [ -2.059806, 53.358813 ], [ -2.068078, 53.357377 ], [ -2.083758, 53.359537 ], [ -2.09518, 53.366064 ], [ -2.115551, 53.364778 ], [ -2.123196, 53.36193 ], [ -2.139026, 53.3673 ], [ -2.137715, 53.366594 ], [ -2.139482, 53.364599 ], [ -2.139871, 53.360138 ], [ -2.138197, 53.356874 ], [ -2.15119, 53.348115 ], [ -2.144099, 53.342854 ], [ -2.150009, 53.33828 ], [ -2.152536, 53.328536 ], [ -2.158443, 53.328919 ], [ -2.160632, 53.327304 ], [ -2.170489, 53.331813 ], [ -2.179727, 53.330265 ], [ -2.194164, 53.338634 ], [ -2.190713, 53.342116 ], [ -2.180978, 53.344027 ], [ -2.188016, 53.34872 ], [ -2.185442, 53.352643 ], [ -2.201872, 53.355411 ], [ -2.208465, 53.354988 ], [ -2.207411, 53.356782 ], [ -2.214541, 53.356702 ], [ -2.216143, 53.35885 ], [ -2.222225, 53.359765 ], [ -2.23284, 53.358748 ], [ -2.232812, 53.360255 ], [ -2.239032, 53.359177 ], [ -2.244144, 53.359762 ], [ -2.244206, 53.361032 ], [ -2.255351, 53.3608 ], [ -2.258929, 53.359454 ], [ -2.258076, 53.35706 ] ] ] ] } }
]
}
